 Automated mail xmit by MAIL_REQUEST, PID=   7160 Sat Oct 11 04:53:16 2014
++++++++++++++++++++++++++++++++ (part 1 of 1)  
++++++++++++++++++++++++++++++++ +++++++++++++++++++++++++++++++

*******************************************************************************
 Revised: Dec 02, 2013           Callisto / (Jupiter)                       504

 SATELLITE PHYSICAL PROPERTIES:
  Radius (km)             = 2403   +- 5     Density (g cm^-3)   = 1.851 +- .004
  Mass (10^20 kg )        = 1076   +- 1     Geometric Albedo    =  0.20 

 SATELLITE ORBITAL DATA:
  Semi-major axis, a (km) = 1883  (10^3)    Orbital period      = 16.689018 d
  Eccentricity, e         = 0.007           Rotational period   = Synchronous
  Inclination, i  (deg)   = 0.281
*******************************************************************************
 
 
*******************************************************************************
Ephemeris / MAIL_REQUEST Sat Oct 11 04:53:16 2014 Pasadena, USA  / Horizons    
*******************************************************************************
Target body name: Callisto (504)                  {source: JUP310}
Center body name: Sun (10)                        {source: DE-0431LE-0431}
Center-site name: BODY CENTER
*******************************************************************************
Start time      : A.D. 2014-Sep-01 10:00:00.0000 CT 
Stop  time      : A.D. 2014-Oct-01 10:00:00.0000 CT 
Step-size       : 2 steps
*******************************************************************************
Center geodetic : 0.00000000,0.00000000,0.0000000 {E-lon(deg),Lat(deg),Alt(km)} Center cylindric: 0.00000000,0.00000000,0.0000000 {E-lon(deg),Dxy(km),Dz(km)}
Center radii    : 696000.0 x 696000.0 x 696000.0 k{Equator, meridian, pole}    
Output units    : AU-D                                                         
Output format   : 03
Reference frame : ICRF/J2000.0                                                 
Output type     : GEOMETRIC cartesian states
Coordinate systm: Ecliptic and Mean Equinox of Reference Epoch                 
*******************************************************************************
JDCT ,   , X, Y, Z, VX, VY, VZ, LT, RG, RR,
*******************************************************************************
$$SOE
2456901.916666667, A.D. 2014-Sep-01 10:00:00.0000, -3.009089808029056E+00,  4.348255288411913E+00,  4.983090959323778E-02, -1.085842994401185E-02, -2.643878188950270E-03,  1.372706054231124E-04,  3.054175168585465E-02,  5.288140376875163E+00,  4.006053615836604E-03, 2456916.916666667, A.D. 2014-Sep-16 10:00:00.0000, -3.096278505405895E+00,  4.283538475251609E+00,  5.212461924414920E-02, -9.097774316555441E-03, -2.979461785757884E-04,  2.371378364588872E-04,  3.052751243163521E-02,  5.285674926433784E+00,  5.090237337294507E-03, 2456931.916666667, A.D. 2014-Oct-01 10:00:00.0000, -3.186002969625247E+00,  4.213860828017573E+00,  5.424522937414056E-02, -6.168361043039083E-03,  5.598546543179580E-04,  3.052203526909005E-04,  3.051211338482277E-02,  5.283008664129910E+00,  4.169617039559840E-03, $$EOE
*******************************************************************************
Coordinate system description:

  Ecliptic and Mean Equinox of Reference Epoch

    Reference epoch: J2000.0
    xy-plane: plane of the Earth's orbit at the reference epoch
    x-axis  : out along ascending node of instantaneous plane of the Earth's
              orbit and the Earth's mean equator at the reference epoch
    z-axis  : perpendicular to the xy-plane in the directional (+ or -) sense
              of Earth's north pole at the reference epoch.

Symbol meaning [1 au=149597870.700 km, 1 day=86400.0 s]:

    JDCT     Epoch Julian Date, Coordinate Time
      X      x-component of position vector (AU)                               
      Y      y-component of position vector (AU)                               
      Z      z-component of position vector (AU)                               
      VX     x-component of velocity vector (AU/day)                           
      VY     y-component of velocity vector (AU/day)                           
      VZ     z-component of velocity vector (AU/day)                           
      LT     One-way down-leg Newtonian light-time (day)                       
      RG     Range; distance from coordinate center (AU)                       
      RR     Range-rate; radial velocity wrt coord. center (AU/day)            

Geometric states/elements have no aberration corrections applied.

 Computations by ...
     Solar System Dynamics Group, Horizons On-Line Ephemeris System
     4800 Oak Grove Drive, Jet Propulsion Laboratory
     Pasadena, CA  91109   USA
     Information: http://ssd.jpl.nasa.gov/
     Connect    : telnet://ssd.jpl.nasa.gov:6775  (via browser)
                  telnet ssd.jpl.nasa.gov 6775    (via command-line)
     Author     : Jon.Giorgini@jpl.nasa.gov
*******************************************************************************
